OBJECT_NAME,OBJECT_ID,EPOCH,MEAN_MOTION,ECCENTRICITY,INCLINATION,RA_OF_ASC_NODE,ARG_OF_PERICENTER,MEAN_ANOMALY,EPHEMERIS_TYPE,CLASSIFICATION_TYPE,NORAD_CAT_ID,ELEMENT_SET_NO,REV_AT_EPOCH,BSTAR,MEAN_MOTION_DOT,MEAN_MOTION_DDOT
ASTRA 1M,2008-057A,2026-07-12T06:45:32.448384,1.00268203,.00043858,0.3584,82.7161,39.9646,288.2839,0,U,33436,999,4598,0,.122E-5,0
EUTELSAT HOTBIRD 13C,2008-065A,2026-07-12T08:04:38.846208,1.00271731,.0003322,3.0123,78.8928,34.6509,247.5404,0,U,33459,999,4759,0,-.284E-5,0
EXPRESS-AM44,2009-007A,2026-07-12T06:36:55.773792,1.00271155,.00037182,3.5241,78.0896,27.0609,273.2314,0,U,33595,999,5253,0,-.91E-6,0
NSS-9,2009-008A,2026-07-12T07:00:33.638400,1.00270895,.00018406,1.3240,82.4097,19.3346,116.6399,0,U,33749,999,6377,0,.72E-6,0
TELSTAR 11N,2009-009A,2026-07-12T07:56:38.646240,1.00269789,.00022808,0.0420,264.2406,202.9610,264.6257,0,U,34111,999,4649,0,-.249E-5,0
WGS F2 (USA 204),2009-017A,2026-07-12T03:31:10.089984,1.00272123,.00004358,0.0173,26.7275,193.4328,180.1675,0,U,34713,999,4586,0,.71E-6,0
SES-7 (PROTOSTAR 2),2009-027A,2026-07-12T07:10:37.543296,1.00269588,.00005104,0.0239,60.1513,177.0008,268.9395,0,U,34941,999,6288,0,-.343E-5,0
MEASAT-3A,2009-032A,2026-07-12T06:26:51.597600,1.00269880,.00025787,0.0396,310.8147,150.0819,85.9707,0,U,35362,999,828,0,-.109E-5,0
GOES 14,2009-033A,2026-07-12T07:16:14.505024,1.00099521,.00018702,1.7518,82.7295,40.4853,42.9126,0,U,35491,999,684,0,-.355E-5,0
FM-5,2009-034A,2026-07-12T04:32:52.979712,1.00269675,.00004599,0.0392,272.2343,53.8200,306.0870,0,U,35493,999,4689,0,-.197E-5,0
TERRESTAR-1,2009-035A,2026-07-12T02:39:23.012928,1.00273111,.00026028,5.1963,48.7773,56.2611,113.8224,0,U,35496,999,6238,0,-.58E-6,0
ASIASAT 5,2009-042A,2026-07-12T02:47:21.681888,1.00274169,.00017395,0.0100,296.4910,143.9917,351.8630,0,U,35696,999,6195,0,-.305E-5,0
JCSAT-12 (JCSAT-RA),2009-044A,2026-07-12T07:17:44.361024,1.00270399,.00006234,0.0374,284.9190,292.7057,314.0596,0,U,35755,999,6186,0,-.326E-5,0
OPTUS D3,2009-044B,2026-07-12T03:11:38.702112,1.00269514,.00030131,0.8913,268.2634,210.3838,15.4262,0,U,35756,999,6181,0,-.142E-5,0
NIMIQ 5,2009-050A,2026-07-12T04:36:15.156576,1.00271716,.00025247,0.0512,256.9984,209.4260,180.0230,0,U,35873,999,6159,0,-.254E-5,0
AMAZONAS 2,2009-054A,2026-07-12T02:54:01.901376,1.00270882,.00031304,1.8774,82.7301,30.3676,148.4364,0,U,35942,999,6143,0,-.258E-5,0
COMSATBW-1,2009-054B,2026-07-12T04:22:21.654048,1.00269055,.00026113,0.0621,185.0473,287.1546,306.5029,0,U,35943,999,6155,0,.28E-6,0
NSS-12,2009-058A,2026-07-12T05:13:39.258336,1.00268258,.00043627,0.0432,287.0611,149.4213,349.0272,0,U,36032,999,6116,0,.75E-6,0
THOR 6,2009-058B,2026-07-12T07:32:38.817024,1.00270260,.00015467,0.0090,294.9737,168.4533,299.0976,0,U,36033,999,6125,0,-.8E-7,0
INTELSAT 14 (IS-14),2009-064A,2026-07-12T08:04:26.846112,1.00270867,.00022162,0.0157,34.9315,83.5902,247.8315,0,U,36097,999,6085,0,-.272E-5,0
EUTELSAT 36B,2009-065A,2026-07-12T03:29:10.281696,1.00272500,.00057089,0.5515,81.3020,31.4006,280.1158,0,U,36101,999,6095,0,.114E-5,0
INTELSAT 15 (IS-15),2009-067A,2026-07-12T03:29:38.637312,1.00271125,.00020877,0.0153,59.8714,60.0676,307.6668,0,U,36106,999,4147,0,-.182E-5,0
WGS F3 (USA 211),2009-068A,2026-07-12T05:44:38.620032,1.00271616,.00007099,0.2999,85.5991,91.0684,69.6444,0,U,36108,999,4684,0,.66E-6,0
DIRECTV 12,2009-075A,2026-07-12T05:41:08.651616,1.00271294,.00003737,0.0056,130.7281,91.8166,50.1401,0,U,36131,999,4680,0,-.101E-5,0
BEIDOU-2 G1,2010-001A,2026-07-11T22:46:53.070240,1.00273300,.00018923,4.3481,60.3170,291.2359,60.4652,0,U,36287,999,6041,0,-.28E-5,0
SDO,2010-005A,2026-07-11T05:56:48.706944,1.00277272,.00020204,34.6998,85.9778,56.2745,133.8056,0,U,36395,999,6030,0,-.102E-5,0
INTELSAT 16 (IS-16),2010-006A,2026-07-12T04:35:37.716000,1.00270842,.00022785,0.0066,35.8128,100.1835,146.7953,0,U,36397,999,5990,0,-.242E-5,0
EWS-G2 (GOES 15),2010-008A,2026-07-12T04:22:21.654048,1.00268209,.00052041,1.3436,82.5028,53.7849,282.7295,0,U,36411,999,5988,0,.23E-6,0
ECHOSTAR 14,2010-010A,2026-07-12T05:36:38.949696,1.00270641,.00019067,0.0461,259.2191,192.7778,163.3781,0,U,36499,999,4680,0,.3E-7,0
SES-1,2010-016A,2026-07-12T04:28:36.918624,1.00271685,.00023715,0.0430,285.7807,184.4212,146.0238,0,U,36516,999,5928,0,-.112E-5,0
ASTRA 3B,2010-021A,2026-07-12T06:46:47.328672,1.00268864,.00044572,1.5324,83.2552,18.2291,313.9060,0,U,36581,999,5911,0,.137E-5,0
COMSATBW-2,2010-021B,2026-07-12T05:01:10.453728,1.00272816,.00023652,0.0481,123.7796,7.3666,247.4666,0,U,36582,999,5920,0,.91E-6,0
