ASTRA 1M                
1 33436U 08057A   26193.28162556  .00000122  00000+0  00000+0 0  9998
2 33436   0.3584  82.7161 0004385  39.9646 288.2839  1.00268203 45981
EUTELSAT HOTBIRD 13C    
1 33459U 08065A   26193.33656072 -.00000284  00000+0  00000+0 0  9999
2 33459   3.0123  78.8928 0003322  34.6509 247.5404  1.00271731 47597
EXPRESS-AM44            
1 33595U 09007A   26193.27564553 -.00000091  00000+0  00000+0 0  9998
2 33595   3.5241  78.0896 0003718  27.0609 273.2314  1.00271155 52532
NSS-9                   
1 33749U 09008A   26193.29205600  .00000072  00000+0  00000+0 0  9995
2 33749   1.3240  82.4097 0001840  19.3346 116.6399  1.00270895 63777
TELSTAR 11N             
1 34111U 09009A   26193.33100285 -.00000249  00000+0  00000+0 0  9995
2 34111   0.0420 264.2406 0002280 202.9610 264.6257  1.00269789 46491
WGS F2 (USA 204)        
1 34713U 09017A   26193.14664456  .00000071  00000+0  00000+0 0  9998
2 34713   0.0173  26.7275 0000435 193.4328 180.1675  1.00272123 45861
SES-7 (PROTOSTAR 2)     
1 34941U 09027A   26193.29904564 -.00000343  00000+0  00000+0 0  9998
2 34941   0.0239  60.1513 0000510 177.0008 268.9395  1.00269588 62887
MEASAT-3A               
1 35362U 09032A   26193.26865275 -.00000109  00000+0  00000+0 0  9994
2 35362   0.0396 310.8147 0002578 150.0819  85.9707  1.00269880  8287
GOES 14                 
1 35491U 09033A   26193.30294566 -.00000355  00000+0  00000+0 0  9995
2 35491   1.7518  82.7295 0001870  40.4853  42.9126  1.00099521  6848
FM-5                    
1 35493U 09034A   26193.18950208 -.00000197  00000+0  00000+0 0  9990
2 35493   0.0392 272.2343 0000459  53.8200 306.0870  1.00269675 46896
TERRESTAR-1             
1 35496U 09035A   26193.11068302 -.00000058  00000+0  00000+0 0  9998
2 35496   5.1963  48.7773 0002602  56.2611 113.8224  1.00273111 62386
ASIASAT 5               
1 35696U 09042A   26193.11622317 -.00000305  00000+0  00000+0 0  9995
2 35696   0.0100 296.4910 0001739 143.9917 351.8630  1.00274169 61954
JCSAT-12 (JCSAT-RA)     
1 35755U 09044A   26193.30398566 -.00000326  00000+0  00000+0 0  9993
2 35755   0.0374 284.9190 0000623 292.7057 314.0596  1.00270399 61867
OPTUS D3                
1 35756U 09044B   26193.13308683 -.00000142  00000+0  00000+0 0  9992
2 35756   0.8913 268.2634 0003013 210.3838  15.4262  1.00269514 61816
NIMIQ 5                 
1 35873U 09050A   26193.19184209 -.00000254  00000+0  00000+0 0  9995
2 35873   0.0512 256.9984 0002524 209.4260 180.0230  1.00271716 61595
AMAZONAS 2              
1 35942U 09054A   26193.12085534 -.00000258  00000+0  00000+0 0  9994
2 35942   1.8774  82.7301 0003130  30.3676 148.4364  1.00270882 61437
COMSATBW-1              
1 35943U 09054B   26193.18219507  .00000028  00000+0  00000+0 0  9994
2 35943   0.0621 185.0473 0002611 287.1546 306.5029  1.00269055 61556
NSS-12                  
1 36032U 09058A   26193.21781549  .00000075  00000+0  00000+0 0  9994
2 36032   0.0432 287.0611 0004362 149.4213 349.0272  1.00268258 61162
THOR 6                  
1 36033U 09058B   26193.31433816 -.00000008  00000+0  00000+0 0  9994
2 36033   0.0090 294.9737 0001546 168.4533 299.0976  1.00270260 61257
INTELSAT 14 (IS-14)     
1 36097U 09064A   26193.33642183 -.00000272  00000+0  00000+0 0  9995
2 36097   0.0157  34.9315 0002216  83.5902 247.8315  1.00270867 60853
EUTELSAT 36B            
1 36101U 09065A   26193.14525789  .00000114  00000+0  00000+0 0  9997
2 36101   0.5515  81.3020 0005708  31.4006 280.1158  1.00272500 60959
INTELSAT 15 (IS-15)     
1 36106U 09067A   26193.14558608 -.00000182  00000+0  00000+0 0  9996
2 36106   0.0153  59.8714 0002087  60.0676 307.6668  1.00271125 41474
WGS F3 (USA 211)        
1 36108U 09068A   26193.23933588  .00000066  00000+0  00000+0 0  9993
2 36108   0.2999  85.5991 0000709  91.0684  69.6444  1.00271616 46849
DIRECTV 12              
1 36131U 09075A   26193.23690569 -.00000101  00000+0  00000+0 0  9997
2 36131   0.0056 130.7281 0000373  91.8166  50.1401  1.00271294 46808
BEIDOU-2 G1             
1 36287U 10001A   26192.94922535 -.00000280  00000+0  00000+0 0  9996
2 36287   4.3481  60.3170 0001892 291.2359  60.4652  1.00273300 60416
SDO                     
1 36395U 10005A   26192.24778596 -.00000102  00000+0  00000+0 0  9992
2 36395  34.6998  85.9778 0002020  56.2745 133.8056  1.00277272 60307
INTELSAT 16 (IS-16)     
1 36397U 10006A   26193.19140875 -.00000242  00000+0  00000+0 0  9998
2 36397   0.0066  35.8128 0002278 100.1835 146.7953  1.00270842 59908
EWS-G2 (GOES 15)        
1 36411U 10008A   26193.18219507  .00000023  00000+0  00000+0 0  9991
2 36411   1.3436  82.5028 0005204  53.7849 282.7295  1.00268209 59889
ECHOSTAR 14             
1 36499U 10010A   26193.23378414  .00000003  00000+0  00000+0 0  9997
2 36499   0.0461 259.2191 0001906 192.7778 163.3781  1.00270641 46808
SES-1                   
1 36516U 10016A   26193.18653841 -.00000112  00000+0  00000+0 0  9999
2 36516   0.0430 285.7807 0002371 184.4212 146.0238  1.00271685 59280
ASTRA 3B                
1 36581U 10021A   26193.28249223  .00000137  00000+0  00000+0 0  9999
2 36581   1.5324  83.2552 0004457  18.2291 313.9060  1.00268864 59111
COMSATBW-2              
1 36582U 10021B   26193.20914877  .00000091  00000+0  00000+0 0  9995
2 36582   0.0481 123.7796 0002365   7.3666 247.4666  1.00272816 59206
